{
    "links": {
        "self": "http://www.neowsapp.com/rest/v1/neo/54051296?api_key=iIulBulltgU6a56xZRHN4H3l9WmuAYTsLGpBGhQ2"
    },
    "id": "54051296",
    "neo_reference_id": "54051296",
    "name": "(2020 QC3)",
    "designation": "2020 QC3",
    "nasa_jpl_url": "http://ssd.jpl.nasa.gov/sbdb.cgi?sstr=54051296",
    "absolute_magnitude_h": 19.339,
    "estimated_diameter": {
        "kilometers": {
            "estimated_diameter_min": 0.3603752665,
            "estimated_diameter_max": 0.8058235934
        },
        "meters": {
            "estimated_diameter_min": 360.3752665386,
            "estimated_diameter_max": 805.82359339
        },
        "miles": {
            "estimated_diameter_min": 0.2239267397,
            "estimated_diameter_max": 0.500715412
        },
        "feet": {
            "estimated_diameter_min": 1182.3335894706,
            "estimated_diameter_max": 2643.7782781376
        }
    },
    "is_potentially_hazardous_asteroid": false,
    "close_approach_data": [
        {
            "close_approach_date": "2005-06-27",
            "close_approach_date_full": "2005-Jun-27 00:20",
            "epoch_date_close_approach": 1119831600000,
            "relative_velocity": {
                "kilometers_per_second": "13.0768650273",
                "kilometers_per_hour": "47076.7140981216",
                "miles_per_hour": "29251.6393794689"
            },
            "miss_distance": {
                "astronomical": "0.3554198578",
                "lunar": "138.2583246842",
                "kilometers": "53170053.682582886",
                "miles": "33038339.3502043868"
            },
            "orbiting_body": "Earth"
        },
        {
            "close_approach_date": "2032-06-26",
            "close_approach_date_full": "2032-Jun-26 06:47",
            "epoch_date_close_approach": 1971845220000,
            "relative_velocity": {
                "kilometers_per_second": "13.2570371689",
                "kilometers_per_hour": "47725.3338081649",
                "miles_per_hour": "29654.66644319"
            },
            "miss_distance": {
                "astronomical": "0.3491747607",
                "lunar": "135.8289819123",
                "kilometers": "52235800.458479709",
                "miles": "32457821.3157256242"
            },
            "orbiting_body": "Earth"
        }
    ],
    "orbital_data": {
        "orbit_id": "5",
        "orbit_determination_date": "2020-08-27 06:50:10",
        "first_observation_date": "2020-08-12",
        "last_observation_date": "2020-08-26",
        "data_arc_in_days": 14,
        "observations_used": 22,
        "orbit_uncertainty": "7",
        "minimum_orbit_intersection": ".346383",
        "jupiter_tisserand_invariant": "3.855",
        "epoch_osculation": "2459000.5",
        "eccentricity": ".3665929987846987",
        "semi_major_axis": "1.819859685972686",
        "inclination": "25.23988115714365",
        "ascending_node_longitude": "296.6788255988704",
        "orbital_period": "896.7167530488541",
        "perihelion_distance": "1.152711866324579",
        "perihelion_argument": "281.4300225537992",
        "aphelion_distance": "2.487007505620793",
        "perihelion_time": "2458859.651675788109",
        "mean_anomaly": "56.54561102363874",
        "mean_motion": ".4014645636718542",
        "equinox": "J2000",
        "orbit_class": {
            "orbit_class_type": "AMO",
            "orbit_class_description": "Near-Earth asteroid orbits similar to that of 1221 Amor",
            "orbit_class_range": "1.017 AU < q (perihelion) < 1.3 AU"
        }
    },
    "is_sentry_object": false
}